{"fetched_at":"2026-03-29T02:12:04Z","count":15717,"tles":[{"name":"COSMOS 2559 (707K)","line1":"1 54031U 22130A   26086.27716517 -.00000031  00000+0  00000+0 0  9992","line2":"2 54031  64.3180 317.4582 0010826 178.2697 181.7868  2.13101261 26941","category":"Other"}]}